HAWK-2B                 
1 47508U 21006CZ  26068.67629241  .00009474  00000+0  29651-3 0  9991
2 47508  97.2334 114.1140 0007102 185.9063 174.2098 15.33301353284246
STARLINK-35908          
1 66639U 25271Y   26068.41543000  .00033595  00000+0  11414-2 0  9993
2 66639  53.1576 141.2786 0002125 151.2114 208.9004 15.30194279 17522
